BEIDOU-3 M24            
1 44542U 19061A   26060.31434985 -.00000031  00000+0  00000+0 0  9990
2 44542  54.3998 186.3652 0008651  22.0339 337.9537  1.86228845 43782
BEIDOU-3 M23            
1 44543U 19061B   26060.10867029 -.00000031  00000+0  00000+0 0  9997
2 44543  54.3976 186.3407 0005102  14.1129 120.2476  1.86227192 43783
BEIDOU-3 M22            
1 44793U 19078A   26059.07985671 -.00000039  00000+0  00000+0 0  9998
2 44793  54.0347 303.6688 0007221  34.9561 325.1493  1.86231871 42613
BEIDOU-3 M21            
1 44794U 19078B   26059.21932407 -.00000040  00000+0  00000+0 0  9996
2 44794  54.0076 303.6269 0005661  36.1333 323.9632  1.86227562 42629
ELEKTRO-L 3             
1 44903U 19095A   26060.39089932 -.00000114  00000+0  00000+0 0  9996
2 44903   0.0290 280.2746 0001735  40.7600  54.8375  1.00269982 22626
NAVSTAR 79 (USA 304)    
1 45854U 20041A   26060.27967270 -.00000067  00000+0  00000+0 0  9999
2 45854  56.6039  33.1302 0061323 205.2440 327.9609  2.00560506 41871
COSMOS 2547 [GLONASS-K] 
1 46805U 20075A   26060.48326888 -.00000013  00000+0  00000+0 0  9991
2 46805  64.6000 196.0666 0006642 229.2536 130.6482  2.13100066 41617
NAVSTAR 80 (USA 309)    
1 46826U 20078A   26059.81602991  .00000003  00000+0  00000+0 0  9992
2 46826  54.0030 215.1712 0068048 204.2108 327.3641  2.00565486 39332
GSAT0223 (GALILEO 27)   
1 49809U 21116A   26048.03988929 -.00000078  00000+0  00000+0 0  9993
2 49809  57.2005 344.9238 0002865 278.1950 264.6358  1.70475508 26130
GSAT0224 (GALILEO 28)   
1 49810U 21116B   26054.89517960 -.00000088  00000+0  00000+0 0  9990
2 49810  57.1984 344.7369 0002182 291.9502 250.7131  1.70475193 26278
GOES 18                 
1 51850U 22021A   26060.52116115  .00000079  00000+0  00000+0 0  9996
2 51850   0.0223  74.2982 0000590 314.9670 180.6511  1.00270442  5517
COSMOS 2557 [GLONASS-K] 
1 52984U 22075A   26060.17911170 -.00000049  00000+0  00000+0 0  9997
2 52984  64.3612 318.2927 0011822 283.1445  76.7771  2.13101670 28416
METEOSAT-12 (MTG-I1)    
1 54743U 22170C   26060.30449226 -.00000025  00000+0  00000+0 0  9995
2 54743   0.7416  28.6879 0001988 278.6270 321.0943  1.00274095 11890
METEOR-M2 3             
1 57166U 23091A   26060.52658906  .00000028  00000+0  31007-4 0  9999
2 57166  98.6233 117.6402 0004991 117.7704 242.3982 14.24036671139196
COSMOS 2569 [GLONASS-K2]
1 57517U 23114A   26060.32428571  .00000038  00000+0  00000+0 0  9991
2 57517  65.2399  76.2569 0012874 291.4204  68.4967  2.13103901 19965
METEOR-M2 4             
1 59051U 24039A   26060.48938500  .00000030  00000+0  33223-4 0  9998
2 59051  98.6890  21.2134 0007997 116.9921 243.2074 14.22415614103956
GSAT0225 (GALILEO 29)   
1 59598U 24079A   26059.47679627  .00000008  00000+0  00000+0 0  9994
2 59598  55.0470 104.1172 0002500 256.3085 211.1082  1.70474768 11462
GSAT0227 (GALILEO 30)   
1 59600U 24079C   26060.07188623  .00000010  00000+0  00000+0 0  9990
2 59600  55.0426 104.0995 0000415  85.7874 274.2997  1.70474778 11525
GSAT0232 (GALILEO 32)   
1 61182U 24167A   26048.66150565  .00000069  00000+0  00000+0 0  9995
2 61182  55.2225 224.5881 0003600 296.6314 116.1306  1.70443939  8265
GSAT0226 (GALILEO 31)   
1 61183U 24167B   26058.99261111  .00000031  00000+0  00000+0 0  9992
2 61183  55.2198 224.3131 0001695 129.0505 235.5609  1.70473900  8997
GSAT0233 (GALILEO 33)   
1 67160U 25302A   26044.50000000 -.00000008  00000+0  00000+0 0  9990
2 67160  54.3935 105.2952 0003011 207.0582 359.4109  1.70474578    20
GSAT0234 (GALILEO 34)   
1 67162U 25302C   26044.50000000 -.00000008  00000+0  00000+0 0  9992
2 67162  54.3967 105.2938 0003081 266.8423 119.7309  1.70475065   127
